OBJECT_NAME,OBJECT_ID,EPOCH,MEAN_MOTION,ECCENTRICITY,INCLINATION,RA_OF_ASC_NODE,ARG_OF_PERICENTER,MEAN_ANOMALY,EPHEMERIS_TYPE,CLASSIFICATION_TYPE,NORAD_CAT_ID,ELEMENT_SET_NO,REV_AT_EPOCH,BSTAR,MEAN_MOTION_DOT,MEAN_MOTION_DDOT
GPS BIIR-5  (PRN 22),2000-040A,2026-06-29T12:07:14.140128,2.00557856,.0120848,54.8501,214.6729,302.5768,235.1095,0,U,26407,999,19019,0,.74E-6,0
GPS BIIR-8  (PRN 16),2003-005A,2026-06-28T14:39:56.332224,2.00560056,.01480478,54.8808,214.5148,53.1107,335.2091,0,U,27663,999,17154,0,.78E-6,0
GPS BIIR-11 (PRN 19),2004-009A,2026-06-28T08:45:51.984864,2.00554511,.01165462,54.8202,275.2354,173.5786,190.0980,0,U,28190,999,16317,0,-.34E-6,0
GPS BIIR-13 (PRN 02),2004-045A,2026-06-28T22:16:02.004672,2.00556587,.01699382,55.1288,324.4235,316.6864,158.1858,0,U,28474,999,15866,0,-.96E-6,0
GPS BIIRM-1 (PRN 17),2005-038A,2026-06-28T19:37:19.490016,2.00565022,.01280366,54.8685,272.7079,296.2526,63.1609,0,U,28874,999,15207,0,-.25E-6,0
INMARSAT 4-F2 (SOUTHPAN/PRN 122),2005-044A,2026-06-28T23:24:24.103008,1.00271452,.00033341,5.1093,43.6742,43.5584,324.4231,0,U,28899,999,7564,0,-.253E-5,0
GPS BIIRM-2 (PRN 31),2006-042A,2026-06-29T11:03:04.365216,2.00569238,.0106853,54.7121,150.8516,54.7447,307.5404,0,U,29486,999,14464,0,.29E-6,0
GPS BIIRM-3 (PRN 12),2006-052A,2026-06-28T09:17:53.380032,2.00558869,.00849058,54.9347,213.5620,90.9098,270.1445,0,U,29601,999,14363,0,.8E-6,0
GPS BIIRM-4 (PRN 15),2007-047A,2026-06-27T04:43:25.383648,2.00554886,.01671439,54.1023,79.6530,87.5980,274.3314,0,U,32260,999,13701,0,-.7E-6,0
COSMOS 2433 (720),2007-052A,2026-06-26T07:13:06.780288,2.13104185,.0002876,65.5713,315.6262,196.1254,163.8539,0,U,32275,999,14525,0,-.84E-6,0
COSMOS 2432 (719),2007-052B,2026-06-27T23:26:54.039840,2.13103239,.000748,65.5863,315.6977,328.0830,181.6997,0,U,32276,999,14531,0,-.78E-6,0
GPS BIIRM-5 (PRN 29),2007-062A,2026-06-29T11:29:24.086400,2.00560923,.0035894,55.0217,273.6583,166.4672,168.7106,0,U,32384,999,13575,0,-.23E-6,0
COSMOS 2434 (721),2007-065A,2026-06-27T04:34:21.639072,2.13101370,.00012437,64.3185,191.5785,326.9302,245.4349,0,U,32393,999,14398,0,.101E-5,0
COSMOS 2436 (723),2007-065C,2026-06-27T20:09:37.709856,2.13100206,.00172824,64.3274,191.6289,353.5963,129.3057,0,U,32395,999,14395,0,.96E-6,0
GPS BIIRM-6 (PRN 07),2008-012A,2026-06-28T14:28:09.376320,2.00572790,.02114503,54.4988,149.4688,247.9745,109.7340,0,U,32711,999,13398,0,.26E-6,0
GPS BIIRM-8 (PRN 05),2009-043A,2026-06-28T14:27:20.676960,2.00553861,.00538161,56.2175,27.0036,83.6950,284.8204,0,U,35752,999,12359,0,-.74E-6,0
COSMOS 2456 (730),2009-070A,2026-06-28T08:20:37.845600,2.13103741,.0003933,65.0173,70.5914,337.8031,200.4792,0,U,36111,999,12866,0,-.41E-6,0
COSMOS 2457 (733),2009-070B,2026-06-27T15:17:52.260288,2.13101175,.00032322,65.0032,70.4590,122.1051,358.6068,0,U,36112,999,12865,0,-.48E-6,0
COSMOS 2460 (732),2010-007C,2026-06-27T05:30:11.897568,2.13101740,.00020317,65.4142,314.1261,121.7117,47.8769,0,U,36402,999,12694,0,-.82E-6,0
GPS BIIF-1  (PRN 25),2010-022A,2026-06-29T08:36:48.431232,2.00563096,.0126463,54.2696,208.0717,66.1279,247.7907,0,U,36585,999,11783,0,.76E-6,0
BEIDOU-2 IGSO-1 (C06),2010-036A,2026-06-28T21:30:52.210368,1.00268967,.0058981,54.3054,162.8539,225.1996,319.1624,0,U,36828,999,5821,0,-.72E-6,0
BEIDOU-2 G4 (C04),2010-057A,2026-06-29T12:20:38.625216,1.00271614,.0004793,3.6768,68.8782,190.3034,3.5548,0,U,37210,999,5741,0,-.105E-5,0
BEIDOU-2 IGSO-2 (C07),2010-068A,2026-06-28T16:23:51.446976,1.00280165,.00563459,47.5257,271.6882,213.6566,145.5786,0,U,37256,999,5690,0,-.195E-5,0
BEIDOU-2 IGSO-3 (C08),2011-013A,2026-06-29T12:55:31.507968,1.00265262,.0035201,62.4244,40.0349,183.8161,354.9022,0,U,37384,999,5578,0,-.164E-5,0
GSAT-8 (GAGAN/PRN 127),2011-022A,2026-06-29T12:40:24.077280,1.00274047,.0001651,2.1618,81.6850,179.9793,261.1325,0,U,37605,999,5334,0,.93E-6,0
BEIDOU-2 IGSO-4 (C09),2011-038A,2026-06-28T22:39:21.811680,1.00283415,.01596942,54.6034,165.5678,231.4501,313.7115,0,U,37763,999,5476,0,.17E-6,0
GSAT0101 (GALILEO-PFM),2011-060A,2026-06-28T13:55:20.058528,1.70475893,.00027734,56.9903,341.4524,56.8947,303.1240,0,U,37846,999,9131,0,-.91E-6,0
GSAT0102 (GALILEO-FM2),2011-060B,2026-06-25T14:01:40.769760,1.70476098,.00028311,56.9921,341.5338,14.5912,352.5946,0,U,37847,999,9127,0,-.97E-6,0
COSMOS 2476 (744),2011-064A,2026-06-28T08:49:08.907744,2.13103789,.00224995,65.2764,72.4937,238.4020,223.3998,0,U,37867,999,11400,0,-.4E-6,0
COSMOS 2477 (745),2011-064B,2026-06-28T17:15:13.880160,2.13103077,.00194044,65.2830,72.5612,238.6898,313.0373,0,U,37868,999,11400,0,-.36E-6,0
COSMOS 2475 (743),2011-064C,2026-06-28T07:44:05.460288,2.13101901,.00252201,65.2895,72.5964,252.3811,310.1425,0,U,37869,999,11400,0,-.4E-6,0
